{
  "norad_id": 57101,
  "name": "STARLINK-6132",
  "history": [
    {
      "epoch": "2026-03-28T14:24:57.511296Z",
      "apogee_km": 560.1722030592691,
      "perigee_km": 558.0036265509016,
      "latitude_deg": -2.274587169693838e-05,
      "longitude_deg": 130.01956646417037,
      "height_km": 558.8269557362343,
      "semi_major_axis_km": 6937.224914805085,
      "eccentricity": 0.0001563,
      "inclination_deg": 43.0034,
      "raan_deg": 172.278,
      "arg_perigee_deg": 272.149,
      "mean_anomaly_deg": 87.9173,
      "mean_motion_rev_day": 15.02533277
    },
    {
      "epoch": "2026-03-29T22:19:30.607104Z",
      "apogee_km": 560.2958375779208,
      "perigee_km": 557.7609973343824,
      "latitude_deg": 1.0123191091680248e-05,
      "longitude_deg": 2.847638627672568,
      "height_km": 558.6950725358421,
      "semi_major_axis_km": 6937.165417456151,
      "eccentricity": 0.0001827,
      "inclination_deg": 43.0073,
      "raan_deg": 165.0544,
      "arg_perigee_deg": 275.1461,
      "mean_anomaly_deg": 84.9173,
      "mean_motion_rev_day": 15.02552607
    },
    {
      "epoch": "2026-03-29T22:19:30.607968Z",
      "apogee_km": 560.2959069495746,
      "perigee_km": 557.7609279627277,
      "latitude_deg": 1.0903385468557712e-05,
      "longitude_deg": 2.8476358496871046,
      "height_km": 558.6950663147193,
      "semi_major_axis_km": 6937.165417456151,
      "eccentricity": 0.00018271,
      "inclination_deg": 43.0073,
      "raan_deg": 165.0544,
      "arg_perigee_deg": 275.1461,
      "mean_anomaly_deg": 84.9173,
      "mean_motion_rev_day": 15.02552607
    },
    {
      "epoch": "2026-03-30T11:04:54.909696Z",
      "apogee_km": 559.91383384049,
      "perigee_km": 556.4582964159044,
      "latitude_deg": -1.5938876668330068e-05,
      "longitude_deg": 168.0792494710607,
      "height_km": 557.6687263146376,
      "semi_major_axis_km": 6936.3230651281965,
      "eccentricity": 0.00024909,
      "inclination_deg": 43.0046,
      "raan_deg": 162.1612,
      "arg_perigee_deg": 279.9264,
      "mean_anomaly_deg": 80.1297,
      "mean_motion_rev_day": 15.02826322
    },
    {
      "epoch": "2026-03-31T20:00:01.999008Z",
      "apogee_km": 551.3849369086356,
      "perigee_km": 549.9091059120756,
      "latitude_deg": -33.64025088983996,
      "longitude_deg": -109.31424902004763,
      "height_km": 559.6612484655218,
      "semi_major_axis_km": 6928.784021410355,
      "eccentricity": 0.0001065,
      "inclination_deg": 43.0007,
      "raan_deg": 154.6931,
      "arg_perigee_deg": 286.3274,
      "mean_anomaly_deg": 307.6375,
      "mean_motion_rev_day": 15.05279773
    }
  ]
}